[{"OBJECT_NAME":"PRSS-1","OBJECT_ID":"2018-056B","EPOCH":"2026-03-09T22:22:59.119680","MEAN_MOTION":14.81812509,"ECCENTRICITY":0.00013581,"INCLINATION":97.7911,"RA_OF_ASC_NODE":139.5221,"ARG_OF_PERICENTER":77.954,"MEAN_ANOMALY":282.1826,"EPHEMERIS_TYPE":0,"CLASSIFICATION_TYPE":"U","NORAD_CAT_ID":43530,"ELEMENT_SET_NO":999,"REV_AT_EPOCH":41373,"BSTAR":0.00012829012,"MEAN_MOTION_DOT":9.62e-6,"MEAN_MOTION_DDOT":0},{"OBJECT_NAME":"NOAA 16 DEB","OBJECT_ID":"2000-055FZ","EPOCH":"2026-03-08T22:07:52.896000","MEAN_MOTION":14.75524151,"ECCENTRICITY":0.00297301,"INCLINATION":98.9229,"RA_OF_ASC_NODE":320.3097,"ARG_OF_PERICENTER":242.5137,"MEAN_ANOMALY":117.3046,"EPHEMERIS_TYPE":0,"CLASSIFICATION_TYPE":"U","NORAD_CAT_ID":41273,"ELEMENT_SET_NO":999,"REV_AT_EPOCH":53554,"BSTAR":0.0040002198,"MEAN_MOTION_DOT":0.00027477,"MEAN_MOTION_DDOT":0}]
